OBJECT_NAME,OBJECT_ID,EPOCH,MEAN_MOTION,ECCENTRICITY,INCLINATION,RA_OF_ASC_NODE,ARG_OF_PERICENTER,MEAN_ANOMALY,EPHEMERIS_TYPE,CLASSIFICATION_TYPE,NORAD_CAT_ID,ELEMENT_SET_NO,REV_AT_EPOCH,BSTAR,MEAN_MOTION_DOT,MEAN_MOTION_DDOT
ALOS-2,2014-029A,2026-06-27T06:49:06.172608,14.79468270,.00016152,97.9223,275.3030,95.4606,264.6789,0,U,39766,999,65307,.58489072E-3,.4319E-4,0
KAZEOSAT 2,2014-033A,2026-06-27T06:24:01.964160,14.85482187,.00071033,97.5408,17.3463,291.7567,68.2892,0,U,40010,999,65045,.93431447E-4,.756E-5,0
HODOYOSHI-4,2014-033B,2026-06-27T07:43:18.221088,14.88148212,.00220793,97.5452,2.6548,272.5353,87.3337,0,U,40011,999,65031,.14424617E-3,.1282E-4,0
DEIMOS-2,2014-033D,2026-06-27T05:33:05.664384,14.93751080,.00011871,97.5827,52.3672,52.3859,307.7469,0,U,40013,999,63922,.95814228E-4,.961E-5,0
HODOYOSHI-3,2014-033F,2026-06-27T00:28:53.076000,14.85407242,.00318788,97.6425,340.6652,324.3372,35.5713,0,U,40015,999,64908,.12671686E-3,.1048E-4,0
SPOT 7,2014-034A,2026-06-27T07:37:48.955008,14.60966594,.0001348,98.0629,240.5485,95.5448,264.5906,0,U,40053,999,63861,.89433636E-4,.393E-5,0
SKYSAT-B,2014-037D,2026-06-27T03:27:54.590112,14.88051354,.00042801,98.3843,137.6771,238.8939,121.1856,0,U,40072,999,64744,.14337835E-3,.1256E-4,0
WORLDVIEW-3 (WV-3),2014-048A,2026-06-27T06:35:05.155008,14.85037552,.0000173,97.8564,252.9679,24.2309,335.8914,0,U,40115,999,64340,.10346094E-3,.83E-5,0
GAOFEN-2,2014-049A,2026-06-27T07:28:30.995040,14.80907224,.00067888,98.0110,242.5089,189.9254,170.1825,0,U,40118,999,64073,.19574829E-4,.98E-6,0
YAOGAN-21,2014-053A,2026-06-27T07:45:52.218720,15.26520982,.00095757,97.1474,218.1249,64.9888,295.2344,0,U,40143,999,65650,.3739233E-3,.9713E-4,0
YAOGAN-22,2014-063A,2026-06-27T07:12:41.364864,13.15531235,.00065676,100.7736,329.7421,163.0569,197.0763,0,U,40275,999,56114,.72461678E-4,-.2E-6,0
ASNARO,2014-070A,2026-06-27T05:38:10.824864,15.19576321,.00063892,97.3452,254.0778,136.5620,223.6119,0,U,40298,999,64553,.34689992E-3,.7319E-4,0
YAOGAN-24,2014-072A,2026-06-27T07:36:49.575744,14.76095706,.00133121,98.1495,315.7409,229.0993,130.9064,0,U,40310,999,62521,.27687265E-4,.138E-5,0
CBERS 4,2014-079A,2026-06-27T06:48:04.846752,14.35511368,.00015373,98.3533,234.7983,54.6682,305.4647,0,U,40336,999,60540,.24280355E-4,.28E-6,0
YAOGAN-26,2014-088A,2026-06-27T06:51:01.749888,15.47753871,.0004743,97.0638,178.2600,42.7400,317.4219,0,U,40362,999,63926,.52003151E-3,.26922E-3,0
SMAP,2015-003A,2026-06-27T06:25:50.168064,14.63374974,.00014394,98.1276,185.2196,98.3367,261.7998,0,U,40376,999,60909,.95140966E-4,.445E-5,0
KOMPSAT-3A,2015-014A,2026-06-27T06:51:25.829568,15.54479053,.00571296,97.6882,170.3889,138.4990,222.0622,0,U,40536,999,62338,.39891694E-3,.28147E-3,0
SENTINEL-2A,2015-028A,2026-06-27T06:49:51.849696,14.30817302,.00011729,98.5686,252.9931,94.4853,265.6464,0,U,40697,999,57517,-.3191333E-4,-.127E-5,0
GAOFEN-8,2015-030A,2026-06-27T07:31:32.097216,15.46304782,.00094703,97.6903,12.2930,151.4356,208.7414,0,U,40701,999,61301,.29435806E-3,.14444E-3,0
CARBONITE 1 (CBNT-1),2015-032D,2026-06-27T07:10:57.004032,14.83614530,.00129478,97.6508,355.9421,261.1192,98.8556,0,U,40718,999,59084,.18174636E-3,.145E-4,0
YAOGAN-27,2015-040A,2026-06-27T06:59:34.388736,13.16071173,.00079555,100.1153,164.2356,186.0757,174.0262,0,U,40878,999,51899,-.21376244E-4,-.51E-6,0
GAOFEN-9 01,2015-047A,2026-06-27T06:02:24.013248,14.82902442,.00288562,97.6271,213.4890,106.3316,254.1074,0,U,40894,999,58168,.13091926E-3,.1018E-4,0
YAOGAN-28,2015-064A,2026-06-27T06:43:32.088864,15.27544020,.00114762,97.3081,316.3371,149.1817,211.0098,0,U,41026,999,59222,.2744478E-3,.7335E-4,0
YAOGAN-29,2015-069A,2026-06-27T07:09:07.201728,14.83092718,.00020668,98.0028,206.9466,38.4809,321.6552,0,U,41038,999,57212,.74960717E-4,.556E-5,0
KENT RIDGE 1,2015-077B,2026-06-27T04:22:55.744896,15.23187566,.00081768,14.9780,191.6486,19.7065,340.3573,0,U,41167,999,58262,.13588214E-3,.4077E-4,0
GAOFEN-4,2015-083A,2026-06-25T21:39:16.789824,1.00271078,.00040511,0.3805,83.9226,113.8387,146.7998,0,U,41194,999,3861,0,-.324E-5,0
JASON-3,2016-002A,2026-06-27T06:07:26.676768,12.87623083,.00083948,66.0415,104.6693,272.2785,87.7273,0,U,41240,999,48854,-.41892742E-4,-.73E-6,0
SENTINEL-3A,2016-011A,2026-06-27T05:53:00.161664,14.26735258,.00014348,98.6246,245.4842,96.8120,263.3224,0,U,41335,999,53949,.5926909E-4,.1E-5,0
ZIYUAN 3-02 (ZY 3-02),2016-033A,2026-06-27T07:39:59.387040,15.21272539,.00125113,97.3839,253.8987,251.4058,108.5820,0,U,41556,999,55952,.2422E-3,.5355E-4,0
CARTOSAT-2C,2016-040A,2026-06-27T06:28:13.672416,15.19267674,.0010542,97.4484,238.1088,100.8453,259.3969,0,U,41599,999,55524,.20075336E-3,.417E-4,0
