ALOS-2                  
1 39766U 14029A   26178.28409922  .00004319  00000+0  58489-3 0  9990
2 39766  97.9223 275.3030 0001615  95.4606 264.6789 14.79468270653079
KAZEOSAT 2              
1 40010U 14033A   26178.26668940  .00000756  00000+0  93431-4 0  9992
2 40010  97.5408  17.3463 0007103 291.7567  68.2892 14.85482187650455
HODOYOSHI-4             
1 40011U 14033B   26178.32173867  .00001282  00000+0  14425-3 0  9999
2 40011  97.5452   2.6548 0022079 272.5353  87.3337 14.88148212650317
DEIMOS-2                
1 40013U 14033D   26178.23131556  .00000961  00000+0  95814-4 0  9995
2 40013  97.5827  52.3672 0001187  52.3859 307.7469 14.93751080639228
HODOYOSHI-3             
1 40015U 14033F   26178.02005875  .00001048  00000+0  12672-3 0  9995
2 40015  97.6425 340.6652 0031878 324.3372  35.5713 14.85407242649080
SPOT 7                  
1 40053U 14034A   26178.31792772  .00000393  00000+0  89434-4 0  9992
2 40053  98.0629 240.5485 0001348  95.5448 264.5906 14.60966594638613
SKYSAT-B                
1 40072U 14037D   26178.14438183  .00001256  00000+0  14338-3 0  9999
2 40072  98.3843 137.6771 0004280 238.8939 121.1856 14.88051354647446
WORLDVIEW-3 (WV-3)      
1 40115U 14048A   26178.27436522  .00000830  00000+0  10346-3 0  9990
2 40115  97.8564 252.9679 0000173  24.2309 335.8914 14.85037552643403
GAOFEN-2                
1 40118U 14049A   26178.31146985  .00000098  00000+0  19575-4 0  9990
2 40118  98.0110 242.5089 0006788 189.9254 170.1825 14.80907224640733
YAOGAN-21               
1 40143U 14053A   26178.32352105  .00009713  00000+0  37392-3 0  9996
2 40143  97.1474 218.1249 0009575  64.9888 295.2344 15.26520982656503
YAOGAN-22               
1 40275U 14063A   26178.30047876 -.00000020  00000+0  72462-4 0  9998
2 40275 100.7736 329.7421 0006567 163.0569 197.0763 13.15531235561145
ASNARO                  
1 40298U 14070A   26178.23484751  .00007319  00000+0  34690-3 0  9997
2 40298  97.3452 254.0778 0006389 136.5620 223.6119 15.19576321645534
YAOGAN-24               
1 40310U 14072A   26178.31724046  .00000138  00000+0  27687-4 0  9998
2 40310  98.1495 315.7409 0013312 229.0993 130.9064 14.76095706625213
CBERS 4                 
1 40336U 14079A   26178.28338943  .00000028  00000+0  24280-4 0  9990
2 40336  98.3533 234.7983 0001537  54.6682 305.4647 14.35511368605403
YAOGAN-26               
1 40362U 14088A   26178.28543692  .00026922  00000+0  52003-3 0  9992
2 40362  97.0638 178.2600 0004743  42.7400 317.4219 15.47753871639260
SMAP                    
1 40376U 15003A   26178.26794176  .00000445  00000+0  95141-4 0  9991
2 40376  98.1276 185.2196 0001439  98.3367 261.7998 14.63374974609094
KOMPSAT-3A              
1 40536U 15014A   26178.28571562  .00028147  00000+0  39892-3 0  9994
2 40536  97.6882 170.3889 0057129 138.4990 222.0622 15.54479053623385
SENTINEL-2A             
1 40697U 15028A   26178.28462789 -.00000127  00000+0 -31913-4 0  9994
2 40697  98.5686 252.9931 0001172  94.4853 265.6464 14.30817302575172
GAOFEN-8                
1 40701U 15030A   26178.31356594  .00014444  00000+0  29436-3 0  9994
2 40701  97.6903  12.2930 0009470 151.4356 208.7414 15.46304782613017
CARBONITE 1 (CBNT-1)    
1 40718U 15032D   26178.29927088  .00001450  00000+0  18175-3 0  9994
2 40718  97.6508 355.9421 0012947 261.1192  98.8556 14.83614530590843
YAOGAN-27               
1 40878U 15040A   26178.29137024 -.00000051  00000+0 -21376-4 0  9999
2 40878 100.1153 164.2356 0007955 186.0757 174.0262 13.16071173518991
GAOFEN-9 01             
1 40894U 15047A   26178.25166682  .00001018  00000+0  13092-3 0  9999
2 40894  97.6271 213.4890 0028856 106.3316 254.1074 14.82902442581682
YAOGAN-28               
1 41026U 15064A   26178.28023251  .00007335  00000+0  27445-3 0  9998
2 41026  97.3081 316.3371 0011476 149.1817 211.0098 15.27544020592228
YAOGAN-29               
1 41038U 15069A   26178.29800002  .00000556  00000+0  74961-4 0  9998
2 41038  98.0028 206.9466 0002066  38.4809 321.6552 14.83092718572128
KENT RIDGE 1            
1 41167U 15077B   26178.18258964  .00004077  00000+0  13588-3 0  9991
2 41167  14.9780 191.6486 0008176  19.7065 340.3573 15.23187566582627
GAOFEN-4                
1 41194U 15083A   26176.90227766 -.00000324  00000+0  00000+0 0  9995
2 41194   0.3805  83.9226 0004051 113.8387 146.7998  1.00271078 38616
JASON-3                 
1 41240U 16002A   26178.25516987 -.00000073  00000+0 -41893-4 0  9997
2 41240  66.0415 104.6693 0008394 272.2785  87.7273 12.87623083488544
SENTINEL-3A             
1 41335U 16011A   26178.24514076  .00000100  00000+0  59269-4 0  9993
2 41335  98.6246 245.4842 0001434  96.8120 263.3224 14.26735258539495
ZIYUAN 3-02 (ZY 3-02)   
1 41556U 16033A   26178.31943735  .00005355  00000+0  24220-3 0  9993
2 41556  97.3839 253.8987 0012511 251.4058 108.5820 15.21272539559526
CARTOSAT-2C             
1 41599U 16040A   26178.26960269  .00004170  00000+0  20075-3 0  9991
2 41599  97.4484 238.1088 0010542 100.8453 259.3969 15.19267674555241
